[{"id":"m1","name":"Arapahoe Basin Ski Resort","city":"Keystone","zip":80435,"state":"CO","lifts":8,"trails":109,"logoUrl":"http://www.coloradoski.com/img/resorts/A-Basin-Logo-SnowReport-234x120.jpg"},{"id":"m2","name":"Aspen Highlands","city":"Aspen","zip":81611,"state":"CO","lifts":5,"trails":119,"logoUrl":"http://www.coloradoski.com/img/resorts/AspenHighlands-Logo-234x120.jpg"},{"id":"m3","name":"Aspen Mountain","city":"Aspen","zip":81611,"state":"CO","lifts":8,"trails":76,"logoUrl":"http://www.coloradoski.com/img/resorts/AspenMountain-Logo-234x120.jpg"},{"id":"m4","name":"Buttermilk","city":"Aspen","zip":81611,"state":"CO","lifts":9,"trails":44,"logoUrl":"http://www.coloradoski.com/img/resorts/AspenButtermilk-Logo-234x120.jpg"},{"id":"m5","name":"Breckenridge","city":"Breckenridge","zip":80424,"state":"CO","lifts":34,"trails":187,"logoUrl":"http://coloradotravelmaster.com/images/Breckenridge-logo.gif"},{"id":"m6","name":"Copper Mountain","city":"Copper Mountain","zip":80443,"state":"CO","lifts":22,"trails":140,"logoUrl":"http://www.coloradoski.com/img/resorts/CopperMtn-SR-Logo-234x120.jpg"},{"id":"m7","name":"Crested Butte","city":"Mount Crested Butte","zip":81225,"state":"CO","lifts":15,"trails":121,"logoUrl":"http://www.coloradoski.com/img/resorts/CrestedButte-SR-Logo-234x120.jpg"},{"id":"m8","name":"Eldora","city":"Nederland","zip":80466,"state":"CO","lifts":11,"trails":53,"logoUrl":"http://www.coloradoski.com/img/resorts/Eldora-SR-Logo-234x120.jpg"},{"id":"m9","name":"Howelsen","city":"Steamboat Springs","zip":80487,"state":"CO","lifts":4,"trails":17,"logoUrl":"http://www.coloradoski.com/img/resorts/HH-SR-Logo-234z120.jpg"},{"id":"m10","name":"Loveland Ski Resort","city":"Georgetown","zip":80444,"state":"CO","lifts":10,"trails":93,"logoUrl":"http://www.coloradoski.com/img/resorts/Loveland-SR-Logo-234x120.jpg"},{"id":"m11","name":"Monarch","city":"Monarch","zip":81227,"state":"CO","lifts":8,"trails":63,"logoUrl":"http://www.coloradoski.com/img/resorts/Monarch-SR-Logo-234x120.jpg"},{"id":"m12","name":"Powderhorn","city":"Mesa","zip":81643,"state":"CO","lifts":5,"trails":63,"logoUrl":"http://www.coloradoski.com/img/resorts/Powderhorn-SR-Logo-234x120.jpg"},{"id":"m13","name":"Purgatory at DMR","city":"Durango","zip":81301,"state":"CO","lifts":10,"trails":88,"logoUrl":"http://www.coloradoski.com/img/resorts/Purgatory-SR-Logo-234x120.jpg"},{"id":"m14","name":"Silverton","city":"Silverton","zip":81433,"state":"CO","lifts":1,"trails":69,"logoUrl":"http://www.coloradoski.com/img/resorts/Silverton-SR-Logo-234x120.jpg"},{"id":"m15","name":"Ski Cooper","city":"Leadville","zip":80461,"state":"CO","lifts":4,"trails":26,"logoUrl":"http://www.coloradoski.com/img/resorts/Cooper-SR-Logo-234x120.jpg"},{"id":"m16","name":"Snowmass","city":"Snowmass Village","zip":81615,"state":"CO","lifts":20,"trails":94,"logoUrl":"http://www.coloradoski.com/img/resorts/Aspen-Snowmass-SR-Logo-234x12011.jpg"},{"id":"m17","name":"Ski Granby Ranch","city":"Granby","zip":80446,"state":"CO","lifts":6,"trails":41,"logoUrl":"http://www.coloradoski.com/img/resorts/SGR_234x120.jpg"},{"id":"m18","name":"Steamboat","city":"Steamboat Springs","zip":80487,"state":"CO","lifts":16,"trails":165,"logoUrl":"http://www.coloradoski.com/img/resorts/Steamboat-SR-Logo-234x120.jpg"},{"id":"m19","name":"Sunlight","city":"Glenwood Springs","zip":81601,"state":"CO","lifts":3,"trails":67,"logoUrl":"http://www.coloradoski.com/img/resorts/Sunlight-SR-Logo-234x120.jpg"},{"id":"m20","name":"Telluride","city":"Telluride","zip":81435,"state":"CO","lifts":18,"trails":127,"logoUrl":"http://www.coloradoski.com/img/resorts/Telluride-SR-Logo-234x120.jpg"},{"id":"m21","name":"Winter Park","city":"Winter Park","zip":80482,"state":"CO","lifts":26,"trails":143,"logoUrl":"http://www.coloradoski.com/img/resorts/WP-SR-Logo-234x120.jpg"},{"id":"m22","name":"Wolf Creek","city":"Pagosa Springs","zip":81147,"state":"CO","lifts":7,"trails":77,"logoUrl":"http://www.coloradoski.com/img/resorts/WolfCreek-SR-Logo-234x120.jpg"}]